[{"OBJECT_NAME":"STARLINK-4181","OBJECT_ID":"2022-062BE","EPOCH":"2026-03-09T03:23:04.055424","MEAN_MOTION":15.08833838,"ECCENTRICITY":0.00014123,"INCLINATION":53.2185,"RA_OF_ASC_NODE":16.1555,"ARG_OF_PERICENTER":94.8856,"MEAN_ANOMALY":265.2298,"EPHEMERIS_TYPE":0,"CLASSIFICATION_TYPE":"U","NORAD_CAT_ID":52882,"ELEMENT_SET_NO":999,"REV_AT_EPOCH":20599,"BSTAR":-0.00021239346,"MEAN_MOTION_DOT":-3.666e-5,"MEAN_MOTION_DDOT":0},{"OBJECT_NAME":"FENGYUN 1C DEB","OBJECT_ID":"1999-025APS","EPOCH":"2026-03-09T05:28:18.008544","MEAN_MOTION":14.8929811,"ECCENTRICITY":0.0134191,"INCLINATION":98.1333,"RA_OF_ASC_NODE":172.0122,"ARG_OF_PERICENTER":51.8819,"MEAN_ANOMALY":339.1928,"EPHEMERIS_TYPE":0,"CLASSIFICATION_TYPE":"U","NORAD_CAT_ID":30660,"ELEMENT_SET_NO":999,"REV_AT_EPOCH":2071,"BSTAR":0.00072395937,"MEAN_MOTION_DOT":8.066e-5,"MEAN_MOTION_DDOT":0}]
